OBJECT_NAME,OBJECT_ID,EPOCH,MEAN_MOTION,ECCENTRICITY,INCLINATION,RA_OF_ASC_NODE,ARG_OF_PERICENTER,MEAN_ANOMALY,EPHEMERIS_TYPE,CLASSIFICATION_TYPE,NORAD_CAT_ID,ELEMENT_SET_NO,REV_AT_EPOCH,BSTAR,MEAN_MOTION_DOT,MEAN_MOTION_DDOT
CHUANGXIN 1-02 (CX-1-02),2008-056B,2026-06-28T15:09:17.196192,14.30155656,.0015446,98.6133,205.7841,105.1708,255.1184,0,U,33434,999,92025,.66393725E-4,.128E-5,0
STARS (KUKAI),2009-002G,2026-06-28T14:11:26.581632,14.95820570,.00097679,98.1545,127.3653,126.7133,233.4986,0,U,33498,999,94018,.32857345E-3,.3609E-4,0
KKS-1 (KISEKI),2009-002H,2026-06-28T14:10:47.021664,14.83151291,.0006418,98.1186,102.2138,250.5573,109.4947,0,U,33499,999,93788,.15915443E-3,.1242E-4,0
UK-DMC 2,2009-041C,2026-06-28T14:44:49.065792,14.76073513,.00012202,97.8844,314.3021,95.2844,264.8505,0,U,35683,999,90825,.15388454E-3,.1012E-4,0
OCEANSAT-2,2009-051A,2026-06-28T13:34:45.818112,13.99660732,.00161363,98.2319,165.2817,202.0595,157.9879,0,U,35931,999,88092,-.13077092E-3,-.229E-5,0
SWISSCUBE,2009-051B,2026-06-27T23:29:06.641376,14.62500860,.00067468,98.4028,87.0546,167.8214,192.3151,0,U,35932,999,89073,.19746654E-3,.952E-5,0
BEESAT-1,2009-051C,2026-06-28T11:20:47.620896,14.61737456,.00049765,98.3955,87.1691,177.6025,182.5200,0,U,35933,999,89083,.16788935E-3,.788E-5,0
ITUPSAT1,2009-051E,2026-06-28T13:00:34.167168,14.60456331,.0006875,98.4040,86.4193,194.0038,166.0972,0,U,35935,999,89039,.15671078E-3,.711E-5,0
DMSP 5D-3 F18 (USA 210),2009-057A,2026-06-28T14:19:44.563584,14.14902946,.00102669,98.9042,160.3416,213.9446,146.1072,0,U,35951,999,86120,.13641679E-3,.219E-5,0
PROBA-2,2009-059B,2026-06-28T12:28:18.122880,14.54867050,.00120627,98.2450,2.7153,243.2462,116.7501,0,U,36037,999,88317,.53747574E-4,.186E-5,0
YAOGAN-7,2009-069A,2026-06-28T14:20:36.673152,14.78020672,.00247523,98.0059,65.3936,5.9291,354.2208,0,U,36110,999,89131,.70768883E-4,.46E-5,0
XIWANG-1 (HOPE-1),2009-072B,2026-06-28T13:37:33.712320,13.16437613,.00071053,100.4024,133.2184,203.5787,156.5002,0,U,36122,999,79450,-.10997773E-2,-.464E-5,0
COSMOS 2463,2010-017A,2026-06-28T13:54:54.114336,13.71666315,.00376157,82.9597,241.3359,98.3468,13.4474,0,U,36519,999,80949,.46883738E-4,.58E-6,0
CARTOSAT-2B,2010-035A,2026-06-28T15:22:19.726176,14.78677297,.00121253,97.9953,230.1174,147.3965,212.7997,0,U,36795,999,86154,.17451771E-3,.1228E-4,0
TISAT 1,2010-035E,2026-06-28T14:43:14.848320,15.32132605,.00029581,98.0708,127.1794,148.9809,211.1606,0,U,36799,999,86945,.63594352E-3,.19674E-3,0
YAOGAN-10,2010-038A,2026-06-28T16:17:14.504640,14.85381453,.00016754,97.8974,202.9909,83.6076,32.0154,0,U,36834,999,85891,.12567495E-3,.1028E-4,0
SHIJIAN-6 04B (SJ-6 04B),2010-051B,2026-06-28T13:38:47.635296,14.99349861,.00069212,97.8709,185.0975,273.7732,86.2700,0,U,37180,999,85738,.15208549E-3,.1798E-4,0
FENGYUN 3B,2010-059A,2026-06-28T15:21:26.649792,14.14845717,.00225161,98.9620,225.7029,151.7820,16.9591,0,U,37214,999,80904,.30580646E-3,.547E-5,0
COSMO-SKYMED 4,2010-060A,2026-06-28T15:36:43.318368,14.82152558,.00014518,97.8884,3.0842,86.2255,273.9125,0,U,37216,999,84626,.13566802E-4,.56E-6,0
O/OREOS (USA 219),2010-062C,2026-06-28T09:07:05.355840,14.93789474,.00129879,71.9713,54.9856,39.1216,321.0891,0,U,37224,999,11831,.2025377E-3,.2089E-4,0
RESOURCESAT-2,2011-015A,2026-06-28T15:09:47.594304,14.21602441,.00106307,98.7641,246.9944,219.4907,140.5497,0,U,37387,999,78780,.59066851E-4,.85E-6,0
YOUTHSAT,2011-015B,2026-06-28T12:51:53.341056,14.25634602,.00135351,98.3688,153.0786,312.4958,158.8749,0,U,37388,999,78925,.84882251E-4,.16E-5,0
APRIZESAT 6,2011-044F,2026-06-28T14:34:25.082400,14.76932723,.00442102,98.2356,90.3396,50.5938,68.2243,0,U,37793,999,79883,.11577219E-3,.771E-5,0
JUGNU,2011-058B,2026-06-28T12:48:23.131584,14.13779476,.00184121,19.9595,239.4959,201.2516,297.0567,0,U,37839,999,76063,.70931175E-4,.403E-5,0
SRMSAT,2011-058D,2026-06-28T12:39:27.569952,14.11577807,.00117412,19.9735,350.8310,329.1506,73.8720,0,U,37841,999,75942,.59605421E-4,.375E-5,0
