CHUANGXIN 1-02 (CX-1-02)
1 33434U 08056B   26179.63144903  .00000128  00000+0  66394-4 0  9993
2 33434  98.6133 205.7841 0015446 105.1708 255.1184 14.30155656920258
STARS (KUKAI)           
1 33498U 09002G   26179.59127988  .00003609  00000+0  32857-3 0  9997
2 33498  98.1545 127.3653 0009767 126.7133 233.4986 14.95820570940188
KKS-1 (KISEKI)          
1 33499U 09002H   26179.59082201  .00001242  00000+0  15915-3 0  9993
2 33499  98.1186 102.2138 0006418 250.5573 109.4947 14.83151291937880
UK-DMC 2                
1 35683U 09041C   26179.61445678  .00001012  00000+0  15388-3 0  9996
2 35683  97.8844 314.3021 0001220  95.2844 264.8505 14.76073513908259
OCEANSAT-2              
1 35931U 09051A   26179.56580808 -.00000229  00000+0 -13077-3 0  9996
2 35931  98.2319 165.2817 0016136 202.0595 157.9879 13.99660732880924
SWISSCUBE               
1 35932U 09051B   26178.97854909  .00000952  00000+0  19747-3 0  9998
2 35932  98.4028  87.0546 0006746 167.8214 192.3151 14.62500860890738
BEESAT-1                
1 35933U 09051C   26179.47277339  .00000788  00000+0  16789-3 0  9991
2 35933  98.3955  87.1691 0004976 177.6025 182.5200 14.61737456890830
ITUPSAT1                
1 35935U 09051E   26179.54206212  .00000711  00000+0  15671-3 0  9998
2 35935  98.4040  86.4193 0006875 194.0038 166.0972 14.60456331890397
DMSP 5D-3 F18 (USA 210) 
1 35951U 09057A   26179.59704356  .00000219  00000+0  13642-3 0  9998
2 35951  98.9042 160.3416 0010266 213.9446 146.1072 14.14902946861200
PROBA-2                 
1 36037U 09059B   26179.51965420  .00000186  00000+0  53748-4 0  9994
2 36037  98.2450   2.7153 0012062 243.2462 116.7501 14.54867050883179
YAOGAN-7                
1 36110U 09069A   26179.59764668  .00000460  00000+0  70769-4 0  9993
2 36110  98.0059  65.3936 0024752   5.9291 354.2208 14.78020672891315
XIWANG-1 (HOPE-1)       
1 36122U 09072B   26179.56775130 -.00000464  00000+0 -10998-2 0  9995
2 36122 100.4024 133.2184 0007105 203.5787 156.5002 13.16437613794503
COSMOS 2463             
1 36519U 10017A   26179.57979299  .00000058  00000+0  46884-4 0  9991
2 36519  82.9597 241.3359 0037615  98.3468  13.4474 13.71666315809495
CARTOSAT-2B             
1 36795U 10035A   26179.64050609  .00001228  00000+0  17452-3 0  9998
2 36795  97.9953 230.1174 0012125 147.3965 212.7997 14.78677297861547
TISAT 1                 
1 36799U 10035E   26179.61336630  .00019674  00000+0  63594-3 0  9992
2 36799  98.0708 127.1794 0002958 148.9809 211.1606 15.32132605869459
YAOGAN-10               
1 36834U 10038A   26179.67864010  .00001028  00000+0  12567-3 0  9997
2 36834  97.8974 202.9909 0001675  83.6076  32.0154 14.85381453858918
SHIJIAN-6 04B (SJ-6 04B)
1 37180U 10051B   26179.56860689  .00001798  00000+0  15209-3 0  9993
2 37180  97.8709 185.0975 0006921 273.7732  86.2700 14.99349861857383
FENGYUN 3B              
1 37214U 10059A   26179.63989178  .00000547  00000+0  30581-3 0  9993
2 37214  98.9620 225.7029 0022516 151.7820  16.9591 14.14845717809044
COSMO-SKYMED 4          
1 37216U 10060A   26179.65050137  .00000056  00000+0  13567-4 0  9994
2 37216  97.8884   3.0842 0001451  86.2255 273.9125 14.82152558846267
O/OREOS (USA 219)       
1 37224U 10062C   26179.37992310  .00002089  00000+0  20254-3 0  9990
2 37224  71.9713  54.9856 0012987  39.1216 321.0891 14.93789474118318
RESOURCESAT-2           
1 37387U 11015A   26179.63180086  .00000085  00000+0  59067-4 0  9996
2 37387  98.7641 246.9944 0010630 219.4907 140.5497 14.21602441787800
YOUTHSAT                
1 37388U 11015B   26179.53603404  .00000160  00000+0  84882-4 0  9997
2 37388  98.3688 153.0786 0013535 312.4958 158.8749 14.25634602789258
APRIZESAT 6             
1 37793U 11044F   26179.60723475  .00000771  00000+0  11577-3 0  9996
2 37793  98.2356  90.3396 0044210  50.5938  68.2243 14.76932723798839
JUGNU                   
1 37839U 11058B   26179.53360106  .00000403  00000+0  70931-4 0  9994
2 37839  19.9595 239.4959 0018412 201.2516 297.0567 14.13779476760631
SRMSAT                  
1 37841U 11058D   26179.52740243  .00000375  00000+0  59605-4 0  9993
2 37841  19.9735 350.8310 0011741 329.1506  73.8720 14.11577807759424
